{
  "type": "FeatureCollection",
  "features": [
    {
      "type": "Feature",
      "properties": {
        "norad_id": 43823,
        "name": "GEO-KOMPSAT-2A",
        "group": "weather",
        "lat": -0.02100712712385936,
        "lon": 53.22586167428108,
        "alt_km": 35787.02663614021,
        "timestamp": "2025-12-08T13:49:31.435175+00:00",
        "meta_object_name": "GEO-KOMPSAT-2A",
        "meta_object_id": "2018-100A",
        "meta_epoch": "2025-12-08T07:21:58.089312",
        "meta_mean_motion": 1.0027093,
        "meta_eccentricity": 1.878e-05,
        "meta_inclination": 0.0574,
        "meta_ra_of_asc_node": 113.9423,
        "meta_arg_of_pericenter": 86.1343,
        "meta_mean_anomaly": 116.0018,
        "meta_ephemeris_type": 0,
        "meta_classification_type": "U",
        "meta_norad_cat_id": 43823,
        "meta_element_set_no": 999,
        "meta_rev_at_epoch": 2571,
        "meta_bstar": 0,
        "meta_mean_motion_dot": -3.41e-06,
        "meta_mean_motion_ddot": 0,
        "tle_line1": "1 43823U 18100A   25342.30692233 -.00000341  00000+0  00000+0 0  9991",
        "tle_line2": "2 43823   0.0574 113.9423 0000187  86.1343 116.0018  1.00270930 25716"
      },
      "geometry": {
        "type": "Point",
        "coordinates": [
          53.22586167428108,
          -0.02100712712385936
        ]
      }
    },
    {
      "type": "Feature",
      "properties": {
        "norad_id": 44387,
        "name": "METEOR-M2 2",
        "group": "weather",
        "lat": -78.08277366787185,
        "lon": 10.173694215663234,
        "alt_km": 818.6302978173198,
        "timestamp": "2025-12-08T13:49:31.435186+00:00",
        "meta_object_name": "METEOR-M2 2",
        "meta_object_id": "2019-038A",
        "meta_epoch": "2025-12-08T05:46:48.679680",
        "meta_mean_motion": 14.24288832,
        "meta_eccentricity": 0.00011394,
        "meta_inclination": 98.8969,
        "meta_ra_of_asc_node": 321.9147,
        "meta_arg_of_pericenter": 156.711,
        "meta_mean_anomaly": 203.412,
        "meta_ephemeris_type": 0,
        "meta_classification_type": "U",
        "meta_norad_cat_id": 44387,
        "meta_element_set_no": 999,
        "meta_rev_at_epoch": 33411,
        "meta_bstar": 0.00017227507,
        "meta_mean_motion_dot": 3.52e-06,
        "meta_mean_motion_ddot": 0,
        "tle_line1": "1 44387U 19038A   25342.24084120  .00000352  00000+0  17228-3 0  9996",
        "tle_line2": "2 44387  98.8969 321.9147 0001139 156.7110 203.4120 14.24288832334115"
      },
      "geometry": {
        "type": "Point",
        "coordinates": [
          10.173694215663234,
          -78.08277366787185
        ]
      }
    },
    {
      "type": "Feature",
      "properties": {
        "norad_id": 47719,
        "name": "ARKTIKA-M 1",
        "group": "weather",
        "lat": -36.616635275026354,
        "lon": 62.544657137763544,
        "alt_km": 2338.6118390125075,
        "timestamp": "2025-12-08T13:49:31.435200+00:00",
        "meta_object_name": "ARKTIKA-M 1",
        "meta_object_id": "2021-016A",
        "meta_epoch": "2025-12-01T02:41:41.634816",
        "meta_mean_motion": 2.00613156,
        "meta_eccentricity": 0.71974708,
        "meta_inclination": 63.1756,
        "meta_ra_of_asc_node": 85.6045,
        "meta_arg_of_pericenter": 269.084,
        "meta_mean_anomaly": 15.7076,
        "meta_ephemeris_type": 0,
        "meta_classification_type": "U",
        "meta_norad_cat_id": 47719,
        "meta_element_set_no": 999,
        "meta_rev_at_epoch": 3481,
        "meta_bstar": 0,
        "meta_mean_motion_dot": -1.2e-07,
        "meta_mean_motion_ddot": 0,
        "tle_line1": "1 47719U 21016A   25335.11228744 -.00000012  00000+0  00000+0 0  9997",
        "tle_line2": "2 47719  63.1756  85.6045 7197470 269.0840  15.7076  2.00613156 34816"
      },
      "geometry": {
        "type": "Point",
        "coordinates": [
          62.544657137763544,
          -36.616635275026354
        ]
      }
    },
    {
      "type": "Feature",
      "properties": {
        "norad_id": 49008,
        "name": "FENGYUN 3E",
        "group": "weather",
        "lat": -55.734712771773246,
        "lon": -3.7913349021936127,
        "alt_km": 832.3634555639183,
        "timestamp": "2025-12-08T13:49:31.435214+00:00",
        "meta_object_name": "FENGYUN 3E",
        "meta_object_id": "2021-062A",
        "meta_epoch": "2025-12-08T05:38:09.487392",
        "meta_mean_motion": 14.19879139,
        "meta_eccentricity": 5.832e-05,
        "meta_inclination": 98.7476,
        "meta_ra_of_asc_node": 342.8095,
        "meta_arg_of_pericenter": 292.904,
        "meta_mean_anomaly": 67.2074,
        "meta_ephemeris_type": 0,
        "meta_classification_type": "U",
        "meta_norad_cat_id": 49008,
        "meta_element_set_no": 999,
        "meta_rev_at_epoch": 22948,
        "meta_bstar": 5.132356e-05,
        "meta_mean_motion_dot": 6.5e-07,
        "meta_mean_motion_ddot": 0,
        "tle_line1": "1 49008U 21062A   25342.23483203  .00000065  00000+0  51324-4 0  9992",
        "tle_line2": "2 49008  98.7476 342.8095 0000583 292.9040  67.2074 14.19879139229480"
      },
      "geometry": {
        "type": "Point",
        "coordinates": [
          -3.7913349021936127,
          -55.734712771773246
        ]
      }
    },
    {
      "type": "Feature",
      "properties": {
        "norad_id": 51850,
        "name": "GOES 18",
        "group": "weather",
        "lat": 0.004061614318204476,
        "lon": 147.95514685569393,
        "alt_km": 35789.07328467937,
        "timestamp": "2025-12-08T13:49:31.435226+00:00",
        "meta_object_name": "GOES 18",
        "meta_object_id": "2022-021A",
        "meta_epoch": "2025-12-08T02:40:45.348672",
        "meta_mean_motion": 1.00271247,
        "meta_eccentricity": 7.644e-05,
        "meta_inclination": 0.0084,
        "meta_ra_of_asc_node": 76.3845,
        "meta_arg_of_pericenter": 225.4198,
        "meta_mean_anomaly": 38.5104,
        "meta_ephemeris_type": 0,
        "meta_classification_type": "U",
        "meta_norad_cat_id": 51850,
        "meta_element_set_no": 999,
        "meta_rev_at_epoch": 467,
        "meta_bstar": 0,
        "meta_mean_motion_dot": 9.9e-07,
        "meta_mean_motion_ddot": 0,
        "tle_line1": "1 51850U 22021A   25342.11163598  .00000099  00000+0  00000+0 0  9992",
        "tle_line2": "2 51850   0.0084  76.3845 0000764 225.4198  38.5104  1.00271247  4676"
      },
      "geometry": {
        "type": "Point",
        "coordinates": [
          147.95514685569393,
          0.004061614318204476
        ]
      }
    },
    {
      "type": "Feature",
      "properties": {
        "norad_id": 54234,
        "name": "NOAA 21 (JPSS-2)",
        "group": "weather",
        "lat": -44.38632127353469,
        "lon": -72.39781805199776,
        "alt_km": 833.6474228320576,
        "timestamp": "2025-12-08T13:49:31.435237+00:00",
        "meta_object_name": "NOAA 21 (JPSS-2)",
        "meta_object_id": "2022-150A",
        "meta_epoch": "2025-12-08T07:16:13.976256",
        "meta_mean_motion": 14.19522476,
        "meta_eccentricity": 0.00023898,
        "meta_inclination": 98.7456,
        "meta_ra_of_asc_node": 278.6667,
        "meta_arg_of_pericenter": 46.6754,
        "meta_mean_anomaly": 313.4621,
        "meta_ephemeris_type": 0,
        "meta_classification_type": "U",
        "meta_norad_cat_id": 54234,
        "meta_element_set_no": 999,
        "meta_rev_at_epoch": 15946,
        "meta_bstar": 0.00013219787,
        "meta_mean_motion_dot": 2.35e-06,
        "meta_mean_motion_ddot": 0,
        "tle_line1": "1 54234U 22150A   25342.30293954  .00000235  00000+0  13220-3 0  9999",
        "tle_line2": "2 54234  98.7456 278.6667 0002389  46.6754 313.4621 14.19522476159461"
      },
      "geometry": {
        "type": "Point",
        "coordinates": [
          -72.39781805199776,
          -44.38632127353469
        ]
      }
    },
    {
      "type": "Feature",
      "properties": {
        "norad_id": 54743,
        "name": "METEOSAT-12 (MTG-I1)",
        "group": "weather",
        "lat": -0.7153318784033904,
        "lon": -75.26555190450982,
        "alt_km": 35779.883838531474,
        "timestamp": "2025-12-08T13:49:31.435258+00:00",
        "meta_object_name": "METEOSAT-12 (MTG-I1)",
        "meta_object_id": "2022-170C",
        "meta_epoch": "2025-12-08T06:45:14.433120",
        "meta_mean_motion": 1.00274861,
        "meta_eccentricity": 0.00014895,
        "meta_inclination": 0.7252,
        "meta_ra_of_asc_node": 30.8853,
        "meta_arg_of_pericenter": 223.0145,
        "meta_mean_anomaly": 284.4666,
        "meta_ephemeris_type": 0,
        "meta_classification_type": "U",
        "meta_norad_cat_id": 54743,
        "meta_element_set_no": 999,
        "meta_rev_at_epoch": 1106,
        "meta_bstar": 0,
        "meta_mean_motion_dot": -4e-08,
        "meta_mean_motion_ddot": 0,
        "tle_line1": "1 54743U 22170C   25342.28141705 -.00000004  00000+0  00000+0 0  9992",
        "tle_line2": "2 54743   0.7252  30.8853 0001489 223.0145 284.4666  1.00274861 11060"
      },
      "geometry": {
        "type": "Point",
        "coordinates": [
          -75.26555190450982,
          -0.7153318784033904
        ]
      }
    }
  ]
}